STARLINK-32682          
1 62196U 24229E   26068.48891601  .00030515  00000+0  11135-2 0  9998
2 62196  42.9945 239.1712 0001206 206.4951 153.5840 15.27589471 70901
FLOCK 4G-3              
1 62639U 25009AG  26068.80174065  .00011494  00000+0  43389-3 0  9993
2 62639  97.4062 151.4068 0001320 293.2042  66.9058 15.27179310 63727
